{
    "links": {
        "self": "http://www.neowsapp.com/rest/v1/neo/54073329?api_key=iIulBulltgU6a56xZRHN4H3l9WmuAYTsLGpBGhQ2"
    },
    "id": "54073329",
    "neo_reference_id": "54073329",
    "name": "(2020 TA7)",
    "designation": "2020 TA7",
    "nasa_jpl_url": "http://ssd.jpl.nasa.gov/sbdb.cgi?sstr=54073329",
    "absolute_magnitude_h": 21.65,
    "estimated_diameter": {
        "kilometers": {
            "estimated_diameter_min": 0.1243240006,
            "estimated_diameter_max": 0.2779969165
        },
        "meters": {
            "estimated_diameter_min": 124.3240005541,
            "estimated_diameter_max": 277.9969164738
        },
        "miles": {
            "estimated_diameter_min": 0.0772513285,
            "estimated_diameter_max": 0.172739222
        },
        "feet": {
            "estimated_diameter_min": 407.887153978,
            "estimated_diameter_max": 912.0634034438
        }
    },
    "is_potentially_hazardous_asteroid": false,
    "close_approach_data": [
        {
            "close_approach_date": "2020-10-16",
            "close_approach_date_full": "2020-Oct-16 00:24",
            "epoch_date_close_approach": 1602807840000,
            "relative_velocity": {
                "kilometers_per_second": "25.2775267977",
                "kilometers_per_hour": "90999.0964718899",
                "miles_per_hour": "56543.2996938807"
            },
            "miss_distance": {
                "astronomical": "0.101806218",
                "lunar": "39.602618802",
                "kilometers": "15229993.36555566",
                "miles": "9463479.050001708"
            },
            "orbiting_body": "Earth"
        },
        {
            "close_approach_date": "2022-04-28",
            "close_approach_date_full": "2022-Apr-28 17:31",
            "epoch_date_close_approach": 1651167060000,
            "relative_velocity": {
                "kilometers_per_second": "22.4131745868",
                "kilometers_per_hour": "80687.4285123245",
                "miles_per_hour": "50136.0302331163"
            },
            "miss_distance": {
                "astronomical": "0.4179243995",
                "lunar": "162.5725914055",
                "kilometers": "62520599.986229065",
                "miles": "38848499.402588497"
            },
            "orbiting_body": "Earth"
        },
        {
            "close_approach_date": "2022-10-01",
            "close_approach_date_full": "2022-Oct-01 04:15",
            "epoch_date_close_approach": 1664597700000,
            "relative_velocity": {
                "kilometers_per_second": "21.4852264545",
                "kilometers_per_hour": "77346.8152361219",
                "miles_per_hour": "48060.3030560225"
            },
            "miss_distance": {
                "astronomical": "0.4363495862",
                "lunar": "169.7399890318",
                "kilometers": "65276968.670901394",
                "miles": "40561227.4829874772"
            },
            "orbiting_body": "Earth"
        },
        {
            "close_approach_date": "2198-08-06",
            "close_approach_date_full": "2198-Aug-06 05:52",
            "epoch_date_close_approach": 7213816320000,
            "relative_velocity": {
                "kilometers_per_second": "17.4303760193",
                "kilometers_per_hour": "62749.353669498",
                "miles_per_hour": "38990.0081175834"
            },
            "miss_distance": {
                "astronomical": "0.0497474524",
                "lunar": "19.3517589836",
                "kilometers": "7442112.916966388",
                "miles": "4624314.5342886344"
            },
            "orbiting_body": "Mars"
        }
    ],
    "orbital_data": {
        "orbit_id": "10",
        "orbit_determination_date": "2020-11-14 05:24:02",
        "first_observation_date": "2020-10-15",
        "last_observation_date": "2020-11-14",
        "data_arc_in_days": 30,
        "observations_used": 60,
        "orbit_uncertainty": "7",
        "minimum_orbit_intersection": ".0722191",
        "jupiter_tisserand_invariant": "4.108",
        "epoch_osculation": "2459000.5",
        "eccentricity": ".418467868902557",
        "semi_major_axis": "1.543214767315231",
        "inclination": "41.89172015229149",
        "ascending_node_longitude": "22.33041367422444",
        "orbital_period": "700.2255971805323",
        "perihelion_distance": ".897428972377871",
        "perihelion_argument": "295.7242711986877",
        "aphelion_distance": "2.189000562252591",
        "perihelion_time": "2459090.072359894679",
        "mean_anomaly": "313.9490562871114",
        "mean_motion": ".5141200228177102",
        "equinox": "J2000",
        "orbit_class": {
            "orbit_class_type": "APO",
            "orbit_class_description": "Near-Earth asteroid orbits which cross the Earth’s orbit similar to that of 1862 Apollo",
            "orbit_class_range": "a (semi-major axis) > 1.0 AU; q (perihelion) < 1.017 AU"
        }
    },
    "is_sentry_object": false
}